{
    "links": {
        "self": "http://www.neowsapp.com/rest/v1/neo/3788035?api_key=iIulBulltgU6a56xZRHN4H3l9WmuAYTsLGpBGhQ2"
    },
    "id": "3788035",
    "neo_reference_id": "3788035",
    "name": "(2017 UP5)",
    "designation": "2017 UP5",
    "nasa_jpl_url": "http://ssd.jpl.nasa.gov/sbdb.cgi?sstr=3788035",
    "absolute_magnitude_h": 27.6,
    "estimated_diameter": {
        "kilometers": {
            "estimated_diameter_min": 0.0080270317,
            "estimated_diameter_max": 0.0179489885
        },
        "meters": {
            "estimated_diameter_min": 8.0270316728,
            "estimated_diameter_max": 17.948988478
        },
        "miles": {
            "estimated_diameter_min": 0.0049877647,
            "estimated_diameter_max": 0.0111529809
        },
        "feet": {
            "estimated_diameter_min": 26.3354065935,
            "estimated_diameter_max": 58.8877593581
        }
    },
    "is_potentially_hazardous_asteroid": false,
    "close_approach_data": [
        {
            "close_approach_date": "2017-10-24",
            "close_approach_date_full": "2017-Oct-24 21:48",
            "epoch_date_close_approach": 1508881680000,
            "relative_velocity": {
                "kilometers_per_second": "10.2010985769",
                "kilometers_per_hour": "36723.9548768692",
                "miles_per_hour": "22818.8374066857"
            },
            "miss_distance": {
                "astronomical": "0.0165864717",
                "lunar": "6.4521374913",
                "kilometers": "2481300.837135279",
                "miles": "1541808.8455696902"
            },
            "orbiting_body": "Earth"
        }
    ],
    "orbital_data": {
        "orbit_id": "2",
        "orbit_determination_date": "2019-12-04 07:16:59",
        "first_observation_date": "2017-10-23",
        "last_observation_date": "2017-10-26",
        "data_arc_in_days": 3,
        "observations_used": 42,
        "orbit_uncertainty": "7",
        "minimum_orbit_intersection": ".0206268",
        "jupiter_tisserand_invariant": "3.178",
        "epoch_osculation": "2459000.5",
        "eccentricity": ".5977619560934692",
        "semi_major_axis": "2.490818174931377",
        "inclination": "10.97337932664238",
        "ascending_node_longitude": "209.9744325991016",
        "orbital_period": "1435.857912897207",
        "perihelion_distance": "1.001901830411232",
        "perihelion_argument": "196.0712564041102",
        "aphelion_distance": "3.979734519451522",
        "perihelion_time": "2459497.830218051416",
        "mean_anomaly": "235.30877749787",
        "mean_motion": ".2507211868015609",
        "equinox": "J2000",
        "orbit_class": {
            "orbit_class_type": "APO",
            "orbit_class_description": "Near-Earth asteroid orbits which cross the Earth’s orbit similar to that of 1862 Apollo",
            "orbit_class_range": "a (semi-major axis) > 1.0 AU; q (perihelion) < 1.017 AU"
        }
    },
    "is_sentry_object": false
}